SIRIUS-1                
1 26390U 00035A   09187.10252582  .00000019  00000-0  10000-3 0  5055
2 26390  61.5217 255.1601 2725509 270.6505  58.7933  1.00276692 33036
SIRIUS-2                
1 26483U 00051A   09186.76372618  .00000012  00000-0  10000-3 0  2061
2 26483  63.7291 134.8978 2703003 268.5803  60.6263  1.00281269 32366
SIRIUS-3                
1 26626U 00077A   09186.43657308 -.00000161  00000-0  10000-3 0  4455
2 26626  64.0836  14.9297 2670115 269.8805  59.7924  1.00272806 31492
XM-2 (ROCK)             
1 26724U 01012A   09187.80000000 -.00000203  00000-0  00000+0 0  6181
2 26724   0.0690 292.1070 0001008 191.7200   3.8640  1.00271093 30498
XM-1 (ROLL)             
1 26761U 01018A   09187.80000000 -.00000203  00000-0  00000+0 0  4018
2 26761   0.0880 285.9080 0000643 218.5070 343.3330  1.00270811 29963
XM-3 (RHYTHM)           
1 28626U 05008A   09187.80000000 -.00000204  00000-0  00000+0 0  6094
2 28626   0.0300  27.1530 0000959  87.4590  13.2000  1.00272108 16007
XM-4 (BLUES)            
1 29520U 06049A   09188.40397188 -.00000022  00000-0  10000-3 0  3873
2 29520   0.0031 330.7980 0000449 153.5153 191.6143  1.00272431  9941
